start=new Date('2022-03-26T00:00:00.000Z').valueOf();
sats=[{"MEAN_MOTION_DDOT":"0.0000000000000","SITE":"AFETR","APOAPSIS":"548.414","RA_OF_ASC_NODE":"69.6089","SEMIMAJOR_AXIS":"6925.363","MEAN_ELEMENT_THEORY":"SGP4","PERIOD":"95.592","TLE_LINE2":"2 47405  53.0546  69.6089 0001712  53.7975 306.3172 15.06395267 65209","ECCENTRICITY":"0.00017120","DECAY_DATE":null,"TLE_LINE1":"1 47405U 21005BJ  22084.43570878 -.00000673  00000-0 -26270-4 0  9995","MEAN_ANOMALY":"306.3172","TIME_SYSTEM":"UTC","GP_ID":"199663103","COUNTRY_CODE":"US","LAUNCH_DATE":"2021-01-20","EPOCH":"2022-03-25T10:27:25.238592","CENTER_NAME":"EARTH","FILE":"3373822","OBJECT_TYPE":"PAYLOAD","MEAN_MOTION_DOT":"-0.00000673","CLASSIFICATION_TYPE":"U","OBJECT_NAME":"STARLINK-2130","BSTAR":"-0.00002627000000","INCLINATION":"53.0546","PERIAPSIS":"546.042","REV_AT_EPOCH":"6520","NORAD_CAT_ID":"47405","MEAN_MOTION":"15.06395267","ARG_OF_PERICENTER":"53.7975","REF_FRAME":"TEME","OBJECT_ID":"2021-005BJ","EPHEMERIS_TYPE":"0","RCS_SIZE":"LARGE","ELEMENT_SET_NO":"999"},{"MEAN_MOTION_DOT":"0.00001591","OBJECT_NAME":"STARLINK-2133","CLASSIFICATION_TYPE":"U","OBJECT_TYPE":"PAYLOAD","INCLINATION":"53.0569","PERIAPSIS":"546.111","REV_AT_EPOCH":"6560","NORAD_CAT_ID":"47406","BSTAR":"0.00012568000000","REF_FRAME":"TEME","ARG_OF_PERICENTER":"77.5216","EPHEMERIS_TYPE":"0","OBJECT_ID":"2021-005BK","MEAN_MOTION":"15.06408439","ELEMENT_SET_NO":"999","RCS_SIZE":"LARGE","APOAPSIS":"548.264","SITE":"AFETR","MEAN_MOTION_DDOT":"0.0000000000000","MEAN_ELEMENT_THEORY":"SGP4","SEMIMAJOR_AXIS":"6925.323","RA_OF_ASC_NODE":"40.3820","TLE_LINE1":"1 47406U 21005BK  22084.26522591  .00001591  00000-0  12568-3 0  9998","MEAN_ANOMALY":"282.5947","TIME_SYSTEM":"UTC","PERIOD":"95.592","TLE_LINE2":"2 47406  53.0569  40.3820 0001554  77.5216 282.5947 15.06408439 65605","ECCENTRICITY":"0.00015540","DECAY_DATE":null,"FILE":"3373822","GP_ID":"199662853","EPOCH":"2022-03-25T06:21:55.518624","LAUNCH_DATE":"2021-01-20","COUNTRY_CODE":"US","CENTER_NAME":"EARTH"},{"RA_OF_ASC_NODE":"40.9505","MEAN_ELEMENT_THEORY":"SGP4","SEMIMAJOR_AXIS":"6925.352","MEAN_MOTION_DDOT":"0.0000000000000","SITE":"AFETR","APOAPSIS":"548.536","COUNTRY_CODE":"US","LAUNCH_DATE":"2021-01-20","EPOCH":"2022-03-25T03:21:28.132416","GP_ID":"199661602","CENTER_NAME":"EARTH","FILE":"3373822","TLE_LINE2":"2 47407  53.0550  40.9505 0001905  53.0911 307.0252 15.06398896 65587","PERIOD":"95.592","ECCENTRICITY":"0.00019050","DECAY_DATE":null,"TLE_LINE1":"1 47407U 21005BL  22084.13990894  .00002540  00000-0  18938-3 0  9992","MEAN_ANOMALY":"307.0252","TIME_SYSTEM":"UTC","BSTAR":"0.00018938000000","INCLINATION":"53.0550","NORAD_CAT_ID":"47407","REV_AT_EPOCH":"6558","PERIAPSIS":"545.898","OBJECT_TYPE":"PAYLOAD","MEAN_MOTION_DOT":"0.00002540","OBJECT_NAME":"STARLINK-2134","CLASSIFICATION_TYPE":"U","RCS_SIZE":"LARGE","ELEMENT_SET_NO":"999","MEAN_MOTION":"15.06398896","ARG_OF_PERICENTER":"53.0911","REF_FRAME":"TEME","EPHEMERIS_TYPE":"0","OBJECT_ID":"2021-005BL"},{"MEAN_ELEMENT_THEORY":"SGP4","SEMIMAJOR_AXIS":"6925.368","RA_OF_ASC_NODE":"38.9940","SITE":"AFETR","APOAPSIS":"548.522","MEAN_MOTION_DDOT":"0.0000000000000","FILE":"3373822","COUNTRY_CODE":"US","LAUNCH_DATE":"2021-01-20","EPOCH":"2022-03-25T13:47:47.834880","GP_ID":"199661852","CENTER_NAME":"EARTH","TLE_LINE1":"1 47408U 21005BM  22084.57485920  .00000379  00000-0  44387-4 0  9996","MEAN_ANOMALY":"306.4342","TIME_SYSTEM":"UTC","TLE_LINE2":"2 47408  53.0574  38.9940 0001861  53.6818 306.4342 15.06393510 65656","PERIOD":"95.593","DECAY_DATE":null,"ECCENTRICITY":"0.00018610","INCLINATION":"53.0574","NORAD_CAT_ID":"47408","PERIAPSIS":"545.945","REV_AT_EPOCH":"6565","BSTAR":"0.00004438700000","MEAN_MOTION_DOT":"0.00000379","OBJECT_NAME":"STARLINK-2135","CLASSIFICATION_TYPE":"U","OBJECT_TYPE":"PAYLOAD","ELEMENT_SET_NO":"999","RCS_SIZE":"LARGE","REF_FRAME":"TEME","ARG_OF_PERICENTER":"53.6818","OBJECT_ID":"2021-005BM","EPHEMERIS_TYPE":"0","MEAN_MOTION":"15.06393510"},{"MEAN_MOTION":"15.06409845","REF_FRAME":"TEME","ARG_OF_PERICENTER":"55.6534","OBJECT_ID":"2021-009A","EPHEMERIS_TYPE":"0","RCS_SIZE":"LARGE","ELEMENT_SET_NO":"999","OBJECT_TYPE":"PAYLOAD","OBJECT_NAME":"STARLINK-1782","MEAN_MOTION_DOT":"0.00002729","CLASSIFICATION_TYPE":"U","BSTAR":"0.00020199000000","INCLINATION":"53.0551","REV_AT_EPOCH":"6311","PERIAPSIS":"545.969","NORAD_CAT_ID":"47548","PERIOD":"95.592","TLE_LINE2":"2 47548  53.0551  19.2714 0001754  55.6534 304.4621 15.06409845 63111","ECCENTRICITY":"0.00017540","DECAY_DATE":null,"TLE_LINE1":"1 47548U 21009A   22084.51403031  .00002729  00000-0  20199-3 0  9997","TIME_SYSTEM":"UTC","MEAN_ANOMALY":"304.4621","GP_ID":"199662368","EPOCH":"2022-03-25T12:20:12.218784","LAUNCH_DATE":"2021-02-04","COUNTRY_CODE":"US","CENTER_NAME":"EARTH","FILE":"3373822","MEAN_MOTION_DDOT":"0.0000000000000","SITE":"AFETR","APOAPSIS":"548.398","RA_OF_ASC_NODE":"19.2714","MEAN_ELEMENT_THEORY":"SGP4","SEMIMAJOR_AXIS":"6925.318"},{"INCLINATION":"53.0563","PERIAPSIS":"546.123","REV_AT_EPOCH":"6377","NORAD_CAT_ID":"47549","BSTAR":"0.00007022600000","MEAN_MOTION_DOT":"0.00000764","CLASSIFICATION_TYPE":"U","OBJECT_NAME":"STARLINK-1806","OBJECT_TYPE":"PAYLOAD","ELEMENT_SET_NO":"999","RCS_SIZE":"LARGE","ARG_OF_PERICENTER":"62.9636","REF_FRAME":"TEME","EPHEMERIS_TYPE":"0","OBJECT_ID":"2021-009B","MEAN_MOTION":"15.06393703","MEAN_ELEMENT_THEORY":"SGP4","SEMIMAJOR_AXIS":"6925.368","RA_OF_ASC_NODE":"17.8027","SITE":"AFETR","APOAPSIS":"548.342","MEAN_MOTION_DDOT":"0.0000000000000","FILE":"3374091","GP_ID":"199672025","LAUNCH_DATE":"2021-02-04","COUNTRY_CODE":"US","EPOCH":"2022-03-25T20:12:35.755200","CENTER_NAME":"EARTH","TLE_LINE1":"1 47549U 21009B   22084.84208050  .00000764  00000-0  70226-4 0  9992","TIME_SYSTEM":"UTC","MEAN_ANOMALY":"297.1517","PERIOD":"95.593","TLE_LINE2":"2 47549  53.0563  17.8027 0001602  62.9636 297.1517 15.06393703 63771","DECAY_DATE":null,"ECCENTRICITY":"0.00016020"},{"TLE_LINE1":"1 47550U 21009C   22084.52232243  .00003158  00000-0  23081-3 0  9996","MEAN_ANOMALY":"299.5178","TIME_SYSTEM":"UTC","PERIOD":"95.592","TLE_LINE2":"2 47550  53.0539   9.2385 0001808  60.5991 299.5178 15.06405126 63259","DECAY_DATE":null,"ECCENTRICITY":"0.00018080","FILE":"3373822","GP_ID":"199662869","EPOCH":"2022-03-25T12:32:08.657952","LAUNCH_DATE":"2021-02-04","COUNTRY_CODE":"US","CENTER_NAME":"EARTH","SITE":"AFETR","APOAPSIS":"548.450","MEAN_MOTION_DDOT":"0.0000000000000","MEAN_ELEMENT_THEORY":"SGP4","SEMIMAJOR_AXIS":"6925.333","RA_OF_ASC_NODE":"9.2385","ARG_OF_PERICENTER":"60.5991","REF_FRAME":"TEME","EPHEMERIS_TYPE":"0","OBJECT_ID":"2021-009C","MEAN_MOTION":"15.06405126","ELEMENT_SET_NO":"999","RCS_SIZE":"LARGE","MEAN_MOTION_DOT":"0.00003158","CLASSIFICATION_TYPE":"U","OBJECT_NAME":"STARLINK-1909","OBJECT_TYPE":"PAYLOAD","INCLINATION":"53.0539","REV_AT_EPOCH":"6325","PERIAPSIS":"545.946","NORAD_CAT_ID":"47550","BSTAR":"0.00023081000000"},{"APOAPSIS":"548.600","SITE":"AFETR","MEAN_MOTION_DDOT":"0.0000000000000","MEAN_ELEMENT_THEORY":"SGP4","SEMIMAJOR_AXIS":"6925.359","RA_OF_ASC_NODE":"27.7671","MEAN_ANOMALY":"310.2365","TIME_SYSTEM":"UTC","TLE_LINE1":"1 47551U 21009D   22084.84853213 -.00001093  00000-0 -54450-4 0  9991","ECCENTRICITY":"0.00019870","DECAY_DATE":null,"PERIOD":"95.592","TLE_LINE2":"2 47551  53.0568  27.7671 0001987  49.8797 310.2365 15.06396680 63621","FILE":"3374091","CENTER_NAME":"EARTH","GP_ID":"199672033","EPOCH":"2022-03-25T20:21:53.176032","LAUNCH_DATE":"2021-02-04","COUNTRY_CODE":"US","MEAN_MOTION_DOT":"-0.00001093","OBJECT_NAME":"STARLINK-1938","CLASSIFICATION_TYPE":"U","OBJECT_TYPE":"PAYLOAD","PERIAPSIS":"545.848","REV_AT_EPOCH":"6362","NORAD_CAT_ID":"47551","INCLINATION":"53.0568","BSTAR":"-0.00005445000000","EPHEMERIS_TYPE":"0","OBJECT_ID":"2021-009D","REF_FRAME":"TEME","ARG_OF_PERICENTER":"49.8797","MEAN_MOTION":"15.06396680","ELEMENT_SET_NO":"999","RCS_SIZE":"LARGE"},{"PERIAPSIS":"546.135","REV_AT_EPOCH":"6311","NORAD_CAT_ID":"47552","INCLINATION":"53.0565","BSTAR":"0.00003956800000","MEAN_MOTION_DOT":"0.00000308","CLASSIFICATION_TYPE":"U","OBJECT_NAME":"STARLINK-1940","OBJECT_TYPE":"PAYLOAD","ELEMENT_SET_NO":"999","RCS_SIZE":"LARGE","OBJECT_ID":"2021-009E","EPHEMERIS_TYPE":"0","ARG_OF_PERICENTER":"59.5330","REF_FRAME":"TEME","MEAN_MOTION":"15.06397303","SEMIMAJOR_AXIS":"6925.357","MEAN_ELEMENT_THEORY":"SGP4","RA_OF_ASC_NODE":"19.2352","SITE":"AFETR","APOAPSIS":"548.309","MEAN_MOTION_DDOT":"0.0000000000000","FILE":"3373822","CENTER_NAME":"EARTH","GP_ID":"199661868","LAUNCH_DATE":"2021-02-04","EPOCH":"2022-03-25T12:30:49.738464","COUNTRY_CODE":"US","MEAN_ANOMALY":"300.5814","TIME_SYSTEM":"UTC","TLE_LINE1":"1 47552U 21009E   22084.52140901  .00000308  00000-0  39568-4 0  9999","DECAY_DATE":null,"ECCENTRICITY":"0.00015700","PERIOD":"95.592","TLE_LINE2":"2 47552  53.0565  19.2352 0001570  59.5330 300.5814 15.06397303 63118"},{"MEAN_MOTION_DDOT":"0.0000000000000","APOAPSIS":"326.254","SITE":"AFETR","RA_OF_ASC_NODE":"345.9399","MEAN_ELEMENT_THEORY":"SGP4","SEMIMAJOR_AXIS":"6703.351","ECCENTRICITY":"0.00015490","DECAY_DATE":null,"TLE_LINE2":"2 47553  53.0530 345.9399 0001549 147.8509 212.2608 15.81848346 63555","PERIOD":"91.033","MEAN_ANOMALY":"212.2608","TIME_SYSTEM":"UTC","TLE_LINE1":"1 47553U 21009F   22084.16355235  .00096593  00000-0  46593-3 0  9994","CENTER_NAME":"EARTH","LAUNCH_DATE":"2021-02-04","COUNTRY_CODE":"US","EPOCH":"2022-03-25T03:55:30.923040","GP_ID":"199662619","FILE":"3373822","OBJECT_TYPE":"PAYLOAD","MEAN_MOTION_DOT":"0.00096593","CLASSIFICATION_TYPE":"U","OBJECT_NAME":"STARLINK-1951","BSTAR":"0.00046593000000","NORAD_CAT_ID":"47553","PERIAPSIS":"324.177","REV_AT_EPOCH":"6355","INCLINATION":"53.0530","MEAN_MOTION":"15.81848346","EPHEMERIS_TYPE":"0","OBJECT_ID":"2021-009F","ARG_OF_PERICENTER":"147.8509","REF_FRAME":"TEME","RCS_SIZE":"LARGE","ELEMENT_SET_NO":"999"}];
